start=new Date('2022-09-09T00:00:00.000Z').valueOf();
sats=[{"REV_AT_EPOCH":"15564","COUNTRY_CODE":"US","MEAN_MOTION_DDOT":"0.0000000000000","DECAY_DATE":null,"APOAPSIS":"548.259","PERIOD":"95.593","TLE_LINE2":"2 44743  53.0537 204.2363 0001473  77.1629 282.9525 15.06391666155641","NORAD_CAT_ID":"44743","MEAN_ANOMALY":"282.9525","OBJECT_ID":"2019-074AG","PERIAPSIS":"546.219","TLE_LINE1":"1 44743U 19074AG  22251.59075535  .00002428  00000-0  18191-3 0  9993","EPOCH":"2022-09-08T14:10:41.262240","REF_FRAME":"TEME","MEAN_ELEMENT_THEORY":"SGP4","OBJECT_NAME":"STARLINK-1038","SITE":"AFETR","OBJECT_TYPE":"PAYLOAD","MEAN_MOTION":"15.06391666","ARG_OF_PERICENTER":"77.1629","MEAN_MOTION_DOT":"0.00002428","GP_ID":"212089049","ECCENTRICITY":"0.00014730","LAUNCH_DATE":"2019-11-11","TIME_SYSTEM":"UTC","ELEMENT_SET_NO":"999","EPHEMERIS_TYPE":"0","BSTAR":"0.00018191000000","INCLINATION":"53.0537","RA_OF_ASC_NODE":"204.2363","SEMIMAJOR_AXIS":"6925.374","RCS_SIZE":"LARGE","FILE":"3564431","CENTER_NAME":"EARTH","CLASSIFICATION_TYPE":"U"},{"COUNTRY_CODE":"US","REV_AT_EPOCH":"15559","DECAY_DATE":null,"MEAN_MOTION_DDOT":"0.0000000000000","NORAD_CAT_ID":"44744","TLE_LINE2":"2 44744  53.0546 202.9947 0001390  71.8954 288.2187 15.06408411155599","PERIOD":"95.592","APOAPSIS":"548.150","MEAN_ANOMALY":"288.2187","OBJECT_ID":"2019-074AH","PERIAPSIS":"546.225","TLE_LINE1":"1 44744U 19074AH  22251.86719431  .00005813  00000-0  40871-3 0  9995","EPOCH":"2022-09-08T20:48:45.588384","REF_FRAME":"TEME","MEAN_ELEMENT_THEORY":"SGP4","SITE":"AFETR","OBJECT_NAME":"STARLINK-1039","OBJECT_TYPE":"PAYLOAD","ARG_OF_PERICENTER":"71.8954","MEAN_MOTION":"15.06408411","GP_ID":"212089298","MEAN_MOTION_DOT":"0.00005813","ECCENTRICITY":"0.00013900","TIME_SYSTEM":"UTC","LAUNCH_DATE":"2019-11-11","RA_OF_ASC_NODE":"202.9947","INCLINATION":"53.0546","EPHEMERIS_TYPE":"0","ELEMENT_SET_NO":"999","BSTAR":"0.00040871000000","SEMIMAJOR_AXIS":"6925.323","FILE":"3564431","RCS_SIZE":"LARGE","CLASSIFICATION_TYPE":"U","CENTER_NAME":"EARTH"},{"ECCENTRICITY":"0.00016340","LAUNCH_DATE":"2019-11-11","TIME_SYSTEM":"UTC","SITE":"AFETR","OBJECT_NAME":"STARLINK-1041","OBJECT_TYPE":"PAYLOAD","MEAN_MOTION":"15.06374837","ARG_OF_PERICENTER":"64.3354","GP_ID":"212090048","MEAN_MOTION_DOT":"0.00006962","RCS_SIZE":"LARGE","FILE":"3564431","CENTER_NAME":"EARTH","CLASSIFICATION_TYPE":"U","EPHEMERIS_TYPE":"0","ELEMENT_SET_NO":"999","BSTAR":"0.00048612000000","INCLINATION":"53.0539","RA_OF_ASC_NODE":"203.9586","SEMIMAJOR_AXIS":"6925.426","APOAPSIS":"548.422","PERIOD":"95.594","TLE_LINE2":"2 44746  53.0539 203.9586 0001634  64.3354 295.7803 15.06374837155564","NORAD_CAT_ID":"44746","OBJECT_ID":"2019-074AK","MEAN_ANOMALY":"295.7803","REV_AT_EPOCH":"15556","COUNTRY_CODE":"US","MEAN_MOTION_DDOT":"0.0000000000000","DECAY_DATE":null,"MEAN_ELEMENT_THEORY":"SGP4","TLE_LINE1":"1 44746U 19074AK  22251.65341926  .00006962  00000-0  48612-3 0  9991","EPOCH":"2022-09-08T15:40:55.424064","PERIAPSIS":"546.159","REF_FRAME":"TEME"},{"RA_OF_ASC_NODE":"205.6113","INCLINATION":"53.0526","ELEMENT_SET_NO":"999","EPHEMERIS_TYPE":"0","BSTAR":"0.00011626000000","SEMIMAJOR_AXIS":"6925.349","FILE":"3563984","RCS_SIZE":"LARGE","CLASSIFICATION_TYPE":"U","CENTER_NAME":"EARTH","OBJECT_NAME":"STARLINK-1042","SITE":"AFETR","OBJECT_TYPE":"PAYLOAD","MEAN_MOTION":"15.06399853","ARG_OF_PERICENTER":"70.6990","MEAN_MOTION_DOT":"0.00001451","GP_ID":"212059752","ECCENTRICITY":"0.00013500","TIME_SYSTEM":"UTC","LAUNCH_DATE":"2019-11-11","TLE_LINE1":"1 44747U 19074AL  22251.28481365  .00001451  00000-0  11626-3 0  9996","PERIAPSIS":"546.279","EPOCH":"2022-09-08T06:50:07.899360","REF_FRAME":"TEME","MEAN_ELEMENT_THEORY":"SGP4","COUNTRY_CODE":"US","REV_AT_EPOCH":"15568","DECAY_DATE":null,"MEAN_MOTION_DDOT":"0.0000000000000","NORAD_CAT_ID":"44747","TLE_LINE2":"2 44747  53.0526 205.6113 0001350  70.6990 289.4145 15.06399853155684","PERIOD":"95.592","APOAPSIS":"548.149","MEAN_ANOMALY":"289.4145","OBJECT_ID":"2019-074AL"},{"TIME_SYSTEM":"UTC","LAUNCH_DATE":"2019-11-11","ECCENTRICITY":"0.00016060","GP_ID":"212089549","MEAN_MOTION_DOT":"0.00002564","SITE":"AFETR","OBJECT_TYPE":"PAYLOAD","OBJECT_NAME":"STARLINK-1043","MEAN_MOTION":"15.06399952","ARG_OF_PERICENTER":"73.8362","CLASSIFICATION_TYPE":"U","CENTER_NAME":"EARTH","FILE":"3564431","RCS_SIZE":"LARGE","SEMIMAJOR_AXIS":"6925.349","RA_OF_ASC_NODE":"202.7910","INCLINATION":"53.0538","ELEMENT_SET_NO":"999","EPHEMERIS_TYPE":"0","BSTAR":"0.00019096000000","MEAN_ANOMALY":"286.2804","OBJECT_ID":"2019-074AM","NORAD_CAT_ID":"44748","TLE_LINE2":"2 44748  53.0538 202.7910 0001606  73.8362 286.2804 15.06399952155602","PERIOD":"95.592","APOAPSIS":"548.326","MEAN_MOTION_DDOT":"0.0000000000000","DECAY_DATE":null,"COUNTRY_CODE":"US","REV_AT_EPOCH":"15560","MEAN_ELEMENT_THEORY":"SGP4","REF_FRAME":"TEME","TLE_LINE1":"1 44748U 19074AM  22251.91142730  .00002564  00000-0  19096-3 0  9992","PERIAPSIS":"546.101","EPOCH":"2022-09-08T21:52:27.318720"},{"ECCENTRICITY":"0.00014710","TIME_SYSTEM":"UTC","LAUNCH_DATE":"2019-11-11","OBJECT_TYPE":"PAYLOAD","SITE":"AFETR","OBJECT_NAME":"STARLINK-1046","ARG_OF_PERICENTER":"68.5913","MEAN_MOTION":"15.06398868","GP_ID":"212089799","MEAN_MOTION_DOT":"0.00003915","FILE":"3564431","RCS_SIZE":"LARGE","CLASSIFICATION_TYPE":"U","CENTER_NAME":"EARTH","RA_OF_ASC_NODE":"204.2228","INCLINATION":"53.0552","BSTAR":"0.00028160000000","EPHEMERIS_TYPE":"0","ELEMENT_SET_NO":"999","SEMIMAJOR_AXIS":"6925.352","NORAD_CAT_ID":"44751","TLE_LINE2":"2 44751  53.0552 204.2228 0001471  68.5913 291.5233 15.06398868155558","PERIOD":"95.592","APOAPSIS":"548.236","OBJECT_ID":"2019-074AQ","MEAN_ANOMALY":"291.5233","COUNTRY_CODE":"US","REV_AT_EPOCH":"15555","MEAN_MOTION_DDOT":"0.0000000000000","DECAY_DATE":null,"MEAN_ELEMENT_THEORY":"SGP4","EPOCH":"2022-09-08T14:15:59.187456","TLE_LINE1":"1 44751U 19074AQ  22251.59443504  .00003915  00000-0  28160-3 0  9996","PERIAPSIS":"546.198","REF_FRAME":"TEME"},{"REF_FRAME":"TEME","EPOCH":"2022-09-08T13:09:38.457792","TLE_LINE1":"1 44752U 19074AR  22251.54836178  .00003434  00000-0  24937-3 0  9999","PERIAPSIS":"546.155","MEAN_ELEMENT_THEORY":"SGP4","DECAY_DATE":null,"MEAN_MOTION_DDOT":"0.0000000000000","REV_AT_EPOCH":"15582","COUNTRY_CODE":"US","MEAN_ANOMALY":"284.2449","OBJECT_ID":"2019-074AR","APOAPSIS":"548.314","PERIOD":"95.593","TLE_LINE2":"2 44752  53.0553 184.4296 0001559  75.8713 284.2449 15.06393263155822","NORAD_CAT_ID":"44752","SEMIMAJOR_AXIS":"6925.369","EPHEMERIS_TYPE":"0","ELEMENT_SET_NO":"999","BSTAR":"0.00024937000000","INCLINATION":"53.0553","RA_OF_ASC_NODE":"184.4296","CENTER_NAME":"EARTH","CLASSIFICATION_TYPE":"U","RCS_SIZE":"LARGE","FILE":"3564431","MEAN_MOTION_DOT":"0.00003434","GP_ID":"212090549","SITE":"AFETR","ARG_OF_PERICENTER":"75.8713","OBJECT_TYPE":"PAYLOAD","OBJECT_NAME":"STARLINK-1047","MEAN_MOTION":"15.06393263","LAUNCH_DATE":"2019-11-11","TIME_SYSTEM":"UTC","ECCENTRICITY":"0.00015590"},{"LAUNCH_DATE":"2019-11-11","TIME_SYSTEM":"UTC","ECCENTRICITY":"0.00015910","MEAN_MOTION_DOT":"0.00007204","GP_ID":"212046843","SITE":"AFETR","OBJECT_NAME":"STARLINK-1048","OBJECT_TYPE":"PAYLOAD","MEAN_MOTION":"15.06394550","ARG_OF_PERICENTER":"74.5078","CENTER_NAME":"EARTH","CLASSIFICATION_TYPE":"U","RCS_SIZE":"LARGE","FILE":"3563723","SEMIMAJOR_AXIS":"6925.365","ELEMENT_SET_NO":"999","EPHEMERIS_TYPE":"0","BSTAR":"0.00050209000000","INCLINATION":"53.0537","RA_OF_ASC_NODE":"164.6989","MEAN_ANOMALY":"285.6087","OBJECT_ID":"2019-074AS","APOAPSIS":"548.332","PERIOD":"95.592","TLE_LINE2":"2 44753  53.0537 164.6989 0001591  74.5078 285.6087 15.06394550156093","NORAD_CAT_ID":"44753","DECAY_DATE":null,"MEAN_MOTION_DDOT":"0.0000000000000","REV_AT_EPOCH":"15609","COUNTRY_CODE":"US","MEAN_ELEMENT_THEORY":"SGP4","REF_FRAME":"TEME","TLE_LINE1":"1 44753U 19074AS  22251.48755870  .00007204  00000-0  50209-3 0  9992","EPOCH":"2022-09-08T11:42:05.071680","PERIAPSIS":"546.128"},{"COUNTRY_CODE":"US","REV_AT_EPOCH":"15626","MEAN_MOTION_DDOT":"0.0000000000000","DECAY_DATE":null,"NORAD_CAT_ID":"44754","TLE_LINE2":"2 44754  53.0544 164.6825 0001540  66.4626 293.6524 15.06402874156267","PERIOD":"95.592","APOAPSIS":"548.271","MEAN_ANOMALY":"293.6524","OBJECT_ID":"2019-074AT","TLE_LINE1":"1 44754U 19074AT  22251.49123340  .00002097  00000-0  15960-3 0  9995","EPOCH":"2022-09-08T11:47:22.565760","PERIAPSIS":"546.138","REF_FRAME":"TEME","MEAN_ELEMENT_THEORY":"SGP4","OBJECT_TYPE":"PAYLOAD","SITE":"AFETR","OBJECT_NAME":"STARLINK-1049","MEAN_MOTION":"15.06402874","ARG_OF_PERICENTER":"66.4626","GP_ID":"212059794","MEAN_MOTION_DOT":"0.00002097","ECCENTRICITY":"0.00015400","TIME_SYSTEM":"UTC","LAUNCH_DATE":"2019-11-11","RA_OF_ASC_NODE":"164.6825","INCLINATION":"53.0544","ELEMENT_SET_NO":"999","EPHEMERIS_TYPE":"0","BSTAR":"0.00015960000000","SEMIMAJOR_AXIS":"6925.340","FILE":"3563986","RCS_SIZE":"LARGE","CLASSIFICATION_TYPE":"U","CENTER_NAME":"EARTH"},{"TLE_LINE1":"1 44757U 19074AW  22251.82480376  .00002082  00000-0  15862-3 0  9995","EPOCH":"2022-09-08T19:47:43.044864","PERIAPSIS":"546.025","REF_FRAME":"TEME","MEAN_ELEMENT_THEORY":"SGP4","COUNTRY_CODE":"US","REV_AT_EPOCH":"15586","DECAY_DATE":null,"MEAN_MOTION_DDOT":"0.0000000000000","NORAD_CAT_ID":"44757","TLE_LINE2":"2 44757  53.0554 183.1874 0001726  77.7960 282.3223 15.06397915155868","PERIOD":"95.592","APOAPSIS":"548.415","OBJECT_ID":"2019-074AW","MEAN_ANOMALY":"282.3223","RA_OF_ASC_NODE":"183.1874","INCLINATION":"53.0554","BSTAR":"0.00015862000000","ELEMENT_SET_NO":"999","EPHEMERIS_TYPE":"0","SEMIMAJOR_AXIS":"6925.355","FILE":"3564431","RCS_SIZE":"LARGE","CLASSIFICATION_TYPE":"U","CENTER_NAME":"EARTH","SITE":"AFETR","OBJECT_NAME":"STARLINK-1052","OBJECT_TYPE":"PAYLOAD","ARG_OF_PERICENTER":"77.7960","MEAN_MOTION":"15.06397915","MEAN_MOTION_DOT":"0.00002082","GP_ID":"212089299","ECCENTRICITY":"0.00017260","TIME_SYSTEM":"UTC","LAUNCH_DATE":"2019-11-11"}];
